GSAT0101 (PRN E11)      
1 37846U 11060A   21356.68896183 -.00000061  00000+0  00000+0 0  9998
2 37846  56.9262  26.1467 0002533 315.4056  44.6365  1.70475158 63200
GSAT0102 (PRN E12)      
1 37847U 11060B   21357.47511576 -.00000059  00000+0  00000+0 0  9994
2 37847  56.9272  26.1249 0004508 301.2377 227.7410  1.70475404 63224
GSAT0103 (PRN E19)      
1 38857U 12055A   21356.72934936  .00000063  00000+0  00000+0 0  9991
2 38857  55.0913 146.5590 0001929 228.5019 131.4438  1.70473678 57092
GSAT0104 (PRN E20)      
1 38858U 12055B   21357.28633496  .00000065  00000+0  00000+0 0  9993
2 38858  55.0915 146.5452 0001526 139.5196 220.4557  1.70473964 57103
GSAT0201 (PRN E18)      
1 40128U 14050A   21355.87839552 -.00000084  00000+0  00000+0 0  9999
2 40128  50.3885 339.3580 1634115 117.8390 259.7111  1.85519549 47922
GSAT0202 (PRN E14)      
1 40129U 14050B   21356.67905328 -.00000079  00000+0  00000+0 0  9998
2 40129  50.4159 338.3814 1631138 118.6738 258.7344  1.85520141 50105
GSAT0203 (PRN E26)      
1 40544U 15017A   21356.47048810 -.00000062  00000+0  00000+0 0  9997
2 40544  56.7206  26.2101 0005210 255.3974 104.6074  1.70476240 41288
GSAT0204 (PRN E22)      
1 40545U 15017B   21357.30955310 -.00000060  00000+0  00000+0 0  9991
2 40545  56.7271  26.1988 0004827 244.7745 115.2365  1.70475755  4341
GSAT0205 (PRN E24)      
1 40889U 15045A   21357.07696290  .00000010  00000+0  00000+0 0  9990
2 40889  55.7419 266.8365 0005893   8.5108 351.5653  1.70474676 39108
GSAT0206 (PRN E30)      
1 40890U 15045B   21355.53725059  .00000006  00000+0  00000+0 0  9992
2 40890  55.7422 266.8750 0004257 358.3115   1.7501  1.70472937 39103
GSAT0209 (PRN E09)      
1 41174U 15079A   21357.47249768  .00000066  00000+0  00000+0 0  9994
2 41174  55.1071 146.2409 0002055 336.1002  23.8546  1.70473449 36872
GSAT0208 (PRN E08)      
1 41175U 15079B   21356.51897933  .00000062  00000+0  00000+0 0  9998
2 41175  55.1054 146.2658 0001389 351.6139   8.3451  1.70473401 37278
GSAT0211 (PRN E02)      
1 41549U 16030A   21357.22526598  .00000010  00000+0  00000+0 0  9999
2 41549  55.8857 266.7429 0004983 336.3647  23.6787  1.70474401 34766
GSAT0210 (PRN E01)      
1 41550U 16030B   21356.93139394  .00000010  00000+0  00000+0 0  9992
2 41550  55.8855 266.7525 0003777 313.7268  46.3082  1.70474479 34755
GSAT0207 (PRN E07)      
1 41859U 16069A   21357.17839169  .00000064  00000+0  00000+0 0  9999
2 41859  54.7668 146.4737 0001758 304.2143  55.7325  1.70473383 31495
GSAT0212 (PRN E03)      
1 41860U 16069B   21355.85864500  .00000060  00000+0  00000+0 0  9997
2 41860  54.7638 146.5083 0001601  17.7924 342.1734  1.70473383 31722
GSAT0213 (PRN E04)      
1 41861U 16069C   21355.63754739  .00000059  00000+0  00000+0 0  9994
2 41861  54.7664 146.5193 0001644 245.8190 114.1238  1.70473477 31584
GSAT0214 (PRN E05)      
1 41862U 16069D   21357.54442524  .00000066  00000+0  00000+0 0  9991
2 41862  54.7652 146.4612 0000806 235.2934 124.6638  1.70473463 31748
GSAT0215 (PRN E21)      
1 43055U 17079A   21356.86193719  .00000010  00000+0  00000+0 0  9991
2 43055  55.8613 266.5880 0003095 314.5132  45.5280  1.70473681 25073
GSAT0216 (PRN E25)      
1 43056U 17079B   21354.80793799  .00000004  00000+0  00000+0 0  9991
2 43056  55.8631 266.6442 0004706 301.3649  58.6494  1.70473827 25058
GSAT0217 (PRN E27)      
1 43057U 17079C   21356.78789802  .00000010  00000+0  00000+0 0  9998
2 43057  55.8597 266.5895 0004638 315.3865  44.6426  1.70473719 25072
GSAT0218 (PRN E31)      
1 43058U 17079D   21357.00790842  .00000010  00000+0  00000+0 0  9991
2 43058  55.8599 266.5810 0004911 296.7475  63.2689  1.70473747 25108
GSAT0221 (PRN E15)      
1 43564U 18060A   21357.49263609 -.00000059  00000+0  00000+0 0  9997
2 43564  57.1048  25.9527 0005635 270.0473  89.9489  1.70476068 21268
GSAT0222 (PRN E33)      
1 43565U 18060B   21357.12588981 -.00000059  00000+0  00000+0 0  9991
2 43565  57.1068  25.9627 0005211 275.8272  84.1748  1.70476096 21303
GSAT0219 (PRN E36)      
1 43566U 18060C   21356.75988906 -.00000060  00000+0  00000+0 0  9993
2 43566  57.1068  25.9745 0004860 275.9328  84.0740  1.70476070 21276
GSAT0220 (PRN E13)      
1 43567U 18060D   21356.97986962 -.00000060  00000+0  00000+0 0  9998
2 43567  57.1067  25.9696 0005133 272.2424  87.7606  1.70476065 21266
GSAT0223                
1 49809U 21116A   21357.19524316 -.00000060  00000+0  00000+0 0  9995
2 49809  57.1112  25.8626 0022627  80.6052 274.4211  1.68525483   292
GSAT0224                
1 49810U 21116B   21357.14291242 -.00000060  00000+0  00000+0 0  9991
2 49810  57.0932  25.8549 0007455  18.3748 351.3703  1.69514521   292
